BEIJING 1               
1 28890U 05043A   23228.38943210  .00000439  00000+0  97286-4 0  9997
2 28890  98.1660 349.2510 0013810 284.9753  74.9919 14.61873428949212
HJ-1A                   
1 33320U 08041A   23228.40158081  .00000845  00000+0  12195-3 0  9995
2 33320  97.6435 245.7184 0019198 290.1417  69.7729 14.78585303805153
HJ-1B                   
1 33321U 08041B   23228.43996792  .00001657  00000+0  22750-3 0  9998
2 33321  97.6448 250.1341 0038353 336.5998  23.3467 14.79168325805164
YAOGAN 4                
1 33446U 08061A   23228.38454654  .00001329  00000+0  18868-3 0  9999
2 33446  97.8518 161.8659 0015314 192.2164 167.8678 14.78498354792357
DEIMOS-1                
1 35681U 09041A   23228.43321565  .00000647  00000+0  10876-3 0  9994
2 35681  97.6832  61.9126 0000659  14.7257 345.3971 14.72629128754304
UK-DMC 2                
1 35683U 09041C   23228.40438003  .00001035  00000+0  17119-3 0  9998
2 35683  97.7406  24.6742 0001377  77.0157 283.1205 14.72285033754002
RISAT 1                 
1 38248U 12017A   23228.28873005  .00006492  00000+0  33079-3 0  9991
2 38248  97.5406 241.0017 0002675 197.8613 162.2527 15.17118118623121
DMC3-FM1                
1 40715U 15032A   23228.43289670  .00000789  00000+0  10377-3 0  9998
2 40715  97.7913 110.6975 0005180 198.7552 161.3472 14.82857144436253
DMC3-FM2                
1 40716U 15032B   23228.45438083  .00000807  00000+0  10604-3 0  9999
2 40716  97.7960 111.5985 0006927 205.7209 154.3661 14.82872522436254
DMC3-FM3                
1 40717U 15032C   23228.41130802  .00000792  00000+0  10415-3 0  9997
2 40717  97.8001 112.6601 0008565 205.1967 154.8830 14.82846547436255
